$$SOE
2461295.500000000, A.D. 2026-Sep-12 00:00:00.0000, -2.901721961453554E+08, 2.790087664749718E+08, -1.254942882177719E+07,
2461302.500000000, A.D. 2026-Sep-19 00:00:00.0000, -2.960601331047781E+08, 2.700852129336542E+08, -1.369102154138638E+07,
2461309.500000000, A.D. 2026-Sep-26 00:00:00.0000, -3.017252727945060E+08, 2.609585109065601E+08, -1.482228768037561E+07,
2461316.500000000, A.D. 2026-Oct-03 00:00:00.0000, -3.071602863189236E+08, 2.516328804776734E+08, -1.594222461812812E+07,
2461323.500000000, A.D. 2026-Oct-10 00:00:00.0000, -3.123578174819679E+08, 2.421128065861864E+08, -1.704981098046888E+07,
2461330.500000000, A.D. 2026-Oct-17 00:00:00.0000, -3.173104899519128E+08, 2.324030491662783E+08, -1.814400674423003E+07,
2461337.500000000, A.D. 2026-Oct-24 00:00:00.0000, -3.220109152094297E+08, 2.225086533338240E+08, -1.922375341896059E+07,
2461344.500000000, A.D. 2026-Oct-31 00:00:00.0000, -3.264517012290221E+08, 2.124349595184259E+08, -2.028797432727543E+07,
2461351.500000000, A.D. 2026-Nov-07 00:00:00.0000, -3.306254616043790E+08, 2.021876135743702E+08, -2.133557501620798E+07,
2461358.500000000, A.D. 2026-Nov-14 00:00:00.0000, -3.345248249669690E+08, 1.917725777110780E+08, -2.236544375311225E+07,
2461365.500000000, A.D. 2026-Nov-21 00:00:00.0000, -3.381424465616396E+08, 1.811961428716856E+08, -2.337645189249475E+07,
2461372.500000000, A.D. 2026-Nov-28 00:00:00.0000, -3.414710230307781E+08, 1.704649394941298E+08, -2.436745427726934E+07,
2461379.500000000, A.D. 2026-Dec-05 00:00:00.0000, -3.445033068353302E+08, 1.595859459341446E+08, -2.533729006884091E+07,
2461386.500000000, A.D. 2026-Dec-12 00:00:00.0000, -3.472321201917902E+08, 1.485664975837015E+08, -2.628478377502843E+07,
2461393.500000000, A.D. 2026-Dec-19 00:00:00.0000, -3.496503704609618E+08, 1.374142966059183E+08, -2.720874631194878E+07,
2461400.500000000, A.D. 2026-Dec-26 00:00:00.0000, -3.517510671776790E+08, 1.261374213289543E+08, -2.810797616852862E+07,
2461407.500000000, A.D. 2027-Jan-02 00:00:00.0000, -3.535273404854348E+08, 1.147443350102082E+08, -2.898126072503653E+07,
2461414.500000000, A.D. 2027-Jan-09 00:00:00.0000, -3.549724608919808E+08, 1.032438938834686E+08, -2.982737774487418E+07,
2461421.500000000, A.D. 2027-Jan-16 00:00:00.0000, -3.560798603354897E+08, 9.164535438072176E+07, -3.064509705173766E+07,
2461428.500000000, A.D. 2027-Jan-23 00:00:00.0000, -3.568431545302309E+08, 7.995837936092325E+07, -3.143318240812770E+07,
2461435.500000000, A.D. 2027-Jan-30 00:00:00.0000, -3.572561664092503E+08, 6.819304315726486E+07, -3.219039362388370E+07,
2461442.500000000, A.D. 2027-Feb-06 00:00:00.0000, -3.573129502367346E+08, 5.635983563033522E+07, -3.291548891340056E+07,
2461449.500000000, A.D. 2027-Feb-13 00:00:00.0000, -3.570078168402202E+08, 4.446966628554907E+07, -3.360722736789889E+07,
2461456.500000000, A.D. 2027-Feb-20 00:00:00.0000, -3.563353623068923E+08, 3.253386749724243E+07, -3.426437139977684E+07,
2461463.500000000, A.D. 2027-Feb-27 00:00:00.0000, -3.552904987143944E+08, 2.056419345739670E+07, -3.488568955878523E+07,
2461470.500000000, A.D. 2027-Mar-06 00:00:00.0000, -3.538684838190424E+08, 8.572816601591336E+06, -3.546995984558553E+07,
2461477.500000000, A.D. 2027-Mar-13 00:00:00.0000, -3.520649512137902E+08, -3.427676616459042E+06, -3.601597321009199E+07,
2461484.500000000, A.D. 2027-Mar-20 00:00:00.0000, -3.498759419777204E+08, -1.542429162214198E+07, -3.652253719928218E+07,
2461491.500000000, A.D. 2027-Mar-27 00:00:00.0000, -3.472979374874167E+08, -2.740363402312610E+07, -3.698847981629219E+07,
2461498.500000000, A.D. 2027-Apr-03 00:00:00.0000, -3.443278930328719E+08, -3.935192054846688E+07, -3.741265360822749E+07,
2461505.500000000, A.D. 2027-Apr-10 00:00:00.0000, -3.409632719943707E+08, -5.125499277992886E+07, -3.779393997771654E+07,
2461512.500000000, A.D. 2027-Apr-17 00:00:00.0000, -3.372020803500350E+08, -6.309833386321247E+07, -3.813125370979066E+07,
2461519.500000000, A.D. 2027-Apr-24 00:00:00.0000, -3.330429012014478E+08, -7.486708842335139E+07, -3.842354771216118E+07,
2461526.500000000, A.D. 2027-May-01 00:00:00.0000, -3.284849287585052E+08, -8.654608580157509E+07, -3.866981797678978E+07,
2461533.500000000, A.D. 2027-May-08 00:00:00.0000, -3.235280011893663E+08, -9.811986598810957E+07, -3.886910870862976E+07,
2461540.500000000, A.D. 2027-May-15 00:00:00.0000, -3.181726335171523E+08, -1.095727073943526E+08, -3.902051738067158E+07,
2461547.500000000, A.D. 2027-May-22 00:00:00.0000, -3.124200517868091E+08, -1.208886591245045E+08, -3.912319975388957E+07,
2461554.500000000, A.D. 2027-May-29 00:00:00.0000, -3.062722247859609E+08, -1.320515792492638E+08, -3.917637525623733E+07,
2461561.500000000, A.D. 2027-Jun-05 00:00:00.0000, -2.997318920532528E+08, -1.430451759415964E+08, -3.917933250664965E+07,
2461568.500000000, A.D. 2027-Jun-12 00:00:00.0000, -2.928025897782483E+08, -1.538530509896176E+08, -3.913143471929052E+07,
2461575.500000000, A.D. 2027-Jun-19 00:00:00.0000, -2.854886745078030E+08, -1.644587465243148E+08, -3.903212498492427E+07,
2461582.500000000, A.D. 2027-Jun-26 00:00:00.0000, -2.777953439622492E+08, -1.748457950780040E+08, -3.888093142515644E+07,
2461589.500000000, A.D. 2027-Jul-03 00:00:00.0000, -2.697286544171316E+08, -1.849977727645392E+08, -3.867747217713305E+07,
2461596.500000000, A.D. 2027-Jul-10 00:00:00.0000, -2.612955342102424E+08, -1.948983553135197E+08, -3.842146015435691E+07,
2461603.500000000, A.D. 2027-Jul-17 00:00:00.0000, -2.525037929498861E+08, -2.045313766806026E+08, -3.811270753089446E+07,
2461610.500000000, A.D. 2027-Jul-24 00:00:00.0000, -2.433621259054246E+08, -2.138808899233239E+08, -3.775112990834707E+07,
2461617.500000000, A.D. 2027-Jul-31 00:00:00.0000, -2.338801128407796E+08, -2.229312296781868E+08, -3.733675012418438E+07,
2461624.500000000, A.D. 2027-Aug-07 00:00:00.0000, -2.240682112066898E+08, -2.316670746055085E+08, -3.686970153015193E+07,
2461631.500000000, A.D. 2027-Aug-14 00:00:00.0000, -2.139377457583290E+08, -2.400735095253452E+08, -3.635023049400903E+07,
2461638.500000000, A.D. 2027-Aug-21 00:00:00.0000, -2.035008938059146E+08, -2.481360900397910E+08, -3.577869840431838E+07,
2461645.500000000, A.D. 2027-Aug-28 00:00:00.0000, -1.927706625642236E+08, -2.558409078384359E+08, -3.515558334846772E+07,
2461652.500000000, A.D. 2027-Sep-04 00:00:00.0000, -1.817608597539141E+08, -2.631746535579106E+08, -3.448148111048490E+07,
2461659.500000000, A.D. 2027-Sep-11 00:00:00.0000, -1.704860588985201E+08, -2.701246772129987E+08, -3.375710538050686E+07,
2461666.500000000, A.D. 2027-Sep-18 00:00:00.0000, -1.589615593124388E+08, -2.766790462018405E+08, -3.298328721503516E+07,
2461673.500000000, A.D. 2027-Sep-25 00:00:00.0000, -1.472033407615435E+08, -2.828266003263086E+08, -3.216097375883155E+07,
2461680.500000000, A.D. 2027-Oct-02 00:00:00.0000, -1.352280130165730E+08, -2.885570031889808E+08, -3.129122622744755E+07,
2461687.500000000, A.D. 2027-Oct-09 00:00:00.0000, -1.230527606567191E+08, -2.938607893951682E+08, -3.037521715734911E+07,
2461694.500000000, A.D. 2027-Oct-16 00:00:00.0000, -1.106952835182099E+08, -2.987294070806947E+08, -2.941422694729939E+07,
2461701.500000000, A.D. 2027-Oct-23 00:00:00.0000, -9.817373305310695E+07, -3.031552552875571E+08, -2.840963973704112E+07,
2461708.500000000, A.D. 2027-Oct-30 00:00:00.0000, -8.550664480306186E+07, -3.071317151559110E+08, -2.736293863848953E+07,
2461715.500000000, A.D. 2027-Nov-06 00:00:00.0000, -7.271286877311224E+07, -3.106531734598154E+08, -2.627570016193636E+07,
2461722.500000000, A.D. 2027-Nov-13 00:00:00.0000, -5.981150034658553E+07, -3.137150403099229E+08, -2.514958787840749E+07,
2461729.500000000, A.D. 2027-Nov-20 00:00:00.0000, -4.682180952500565E+07, -3.163137630569928E+08, -2.398634582757398E+07,
2461736.500000000, A.D. 2027-Nov-27 00:00:00.0000, -3.376316758392145E+07, -3.184468333764079E+08, -2.278779164858472E+07,
2461743.500000000, A.D. 2027-Dec-04 00:00:00.0000, -2.065497388078210E+07, -3.201127866488405E+08, -2.155580924753709E+07,
2461750.500000000, A.D. 2027-Dec-11 00:00:00.0000, -7.516584061617975E+06, -3.213111947111546E+08, -2.029234110568109E+07,
2461757.500000000, A.D. 2027-Dec-18 00:00:00.0000, 5.632759942609913E+06, -3.220426525081018E+08, -1.899938035885760E+07,
2461764.500000000, A.D. 2027-Dec-25 00:00:00.0000, 1.877399765718241E+07, -3.223087589160539E+08, -1.767896274100992E+07,
2461771.500000000, A.D. 2028-Jan-01 00:00:00.0000, 3.188831501029330E+07, -3.221120920650379E+08, -1.633315847326139E+07,
$$EOE